{"type": "FeatureCollection", "features": [ {"type": "Feature", "properties": {"norad_id": 67143, "name": "KUIPER-00191", "group": "last-30-days", "lat": -41.32274096276954, "lon": -81.83193126009762, "alt_km": 465.3133420856766, "timestamp": "2025-12-27T09:28:55.187694+00:00", "meta": {"OBJECT_NAME": "KUIPER-00191", "OBJECT_ID": "2025-301L", "EPOCH": "2025-12-27T03:46:02.688384", "MEAN_MOTION": 15.35219516, "ECCENTRICITY": 0.0006753, "INCLINATION": 51.8684, "RA_OF_ASC_NODE": 55.633, "ARG_OF_PERICENTER": 136.1783, "MEAN_ANOMALY": 223.9739, "EPHEMERIS_TYPE": 0, "CLASSIFICATION_TYPE": "U", "NORAD_CAT_ID": 67143, "ELEMENT_SET_NO": 999, "REV_AT_EPOCH": 261, "BSTAR": 0.0010684, "MEAN_MOTION_DOT": 0.00036912, "MEAN_MOTION_DDOT": 0}, "tle": {"line1": "1 67143U 25301L   25361.15697556  .00036912  00000+0  10684-2 0  9994", "line2": "2 67143  51.8684  55.6330 0006753 136.1783 223.9739 15.35219516  2619"}}, "geometry": {"type": "Point", "coordinates": [-81.83193126009762, -41.32274096276954]}}, {"type": "Feature", "properties": {"norad_id": 67144, "name": "KUIPER-00196", "group": "last-30-days", "lat": -51.77688110440633, "lon": -31.34050925482968, "alt_km": 464.9586085229139, "timestamp": "2025-12-27T09:28:55.187704+00:00", "meta": {"OBJECT_NAME": "KUIPER-00196", "OBJECT_ID": "2025-301M", "EPOCH": "2025-12-27T03:36:57.271104", "MEAN_MOTION": 15.36075146, "ECCENTRICITY": 0.0003935, "INCLINATION": 51.8733, "RA_OF_ASC_NODE": 55.5871, "ARG_OF_PERICENTER": 105.6377, "MEAN_ANOMALY": 254.5044, "EPHEMERIS_TYPE": 0, "CLASSIFICATION_TYPE": "U", "NORAD_CAT_ID": 67144, "ELEMENT_SET_NO": 999, "REV_AT_EPOCH": 258, "BSTAR": 0.00065627, "MEAN_MOTION_DOT": 0.00023105, "MEAN_MOTION_DDOT": 0}, "tle": {"line1": "1 67144U 25301M   25361.15066286  .00023105  00000+0  65627-3 0  9993", "line2": "2 67144  51.8733  55.5871 0003935 105.6377 254.5044 15.36075146  2588"}}, "geometry": {"type": "Point", "coordinates": [-31.34050925482968, -51.77688110440633]}}, {"type": "Feature", "properties": {"norad_id": 67145, "name": "KUIPER-00204", "group": "last-30-days", "lat": -46.36363837894751, "lon": -1.0939833187037658, "alt_km": 461.8794384539351, "timestamp": "2025-12-27T09:28:55.187714+00:00", "meta": {"OBJECT_NAME": "KUIPER-00204", "OBJECT_ID": "2025-301N", "EPOCH": "2025-12-27T03:31:44.612832", "MEAN_MOTION": 15.36587938, "ECCENTRICITY": 0.000198, "INCLINATION": 51.8749, "RA_OF_ASC_NODE": 55.5578, "ARG_OF_PERICENTER": 88.0305, "MEAN_ANOMALY": 272.0908, "EPHEMERIS_TYPE": 0, "CLASSIFICATION_TYPE": "U", "NORAD_CAT_ID": 67145, "ELEMENT_SET_NO": 999, "REV_AT_EPOCH": 269, "BSTAR": 0.00097757, "MEAN_MOTION_DOT": 0.00035238, "MEAN_MOTION_DDOT": 0}, "tle": {"line1": "1 67145U 25301N   25361.14704413  .00035238  00000+0  97757-3 0  9993", "line2": "2 67145  51.8749  55.5578 0001980  88.0305 272.0908 15.36587938  2696"}}, "geometry": {"type": "Point", "coordinates": [-1.0939833187037658, -46.36363837894751]}}, {"type": "Feature", "properties": {"norad_id": 67146, "name": "KUIPER-00210", "group": "last-30-days", "lat": -13.133139212594713, "lon": -114.87191307680972, "alt_km": 460.0745861456189, "timestamp": "2025-12-27T09:28:55.187726+00:00", "meta": {"OBJECT_NAME": "KUIPER-00210", "OBJECT_ID": "2025-301P", "EPOCH": "2025-12-27T03:56:20.336064", "MEAN_MOTION": 15.34233986, "ECCENTRICITY": 0.0010592, "INCLINATION": 51.8611, "RA_OF_ASC_NODE": 55.6766, "ARG_OF_PERICENTER": 153.5468, "MEAN_ANOMALY": 206.606, "EPHEMERIS_TYPE": 0, "CLASSIFICATION_TYPE": "U", "NORAD_CAT_ID": 67146, "ELEMENT_SET_NO": 999, "REV_AT_EPOCH": 275, "BSTAR": 0.001228, "MEAN_MOTION_DOT": 0.00041227, "MEAN_MOTION_DDOT": 0}, "tle": {"line1": "1 67146U 25301P   25361.16412426  .00041227  00000+0  12280-2 0  9998", "line2": "2 67146  51.8611  55.6766 0010592 153.5468 206.6060 15.34233986  2750"}}, "geometry": {"type": "Point", "coordinates": [-114.87191307680972, -13.133139212594713]}}, {"type": "Feature", "properties": {"norad_id": 67147, "name": "KUIPER-00221", "group": "last-30-days", "lat": -50.748863218699555, "lon": -51.56105261191962, "alt_km": 465.9373235580915, "timestamp": "2025-12-27T09:28:55.187736+00:00", "meta": {"OBJECT_NAME": "KUIPER-00221", "OBJECT_ID": "2025-301Q", "EPOCH": "2025-12-27T03:40:12.177408", "MEAN_MOTION": 15.35789898, "ECCENTRICITY": 0.0005122, "INCLINATION": 51.8726, "RA_OF_ASC_NODE": 55.6046, "ARG_OF_PERICENTER": 116.2091, "MEAN_ANOMALY": 243.9422, "EPHEMERIS_TYPE": 0, "CLASSIFICATION_TYPE": "U", "NORAD_CAT_ID": 67147, "ELEMENT_SET_NO": 999, "REV_AT_EPOCH": 258, "BSTAR": 0.001031, "MEAN_MOTION_DOT": 0.00036254, "MEAN_MOTION_DDOT": 0}, "tle": {"line1": "1 67147U 25301Q   25361.15291872  .00036254  00000+0  10310-2 0  9994", "line2": "2 67147  51.8726  55.6046 0005122 116.2091 243.9422 15.35789898  2586"}}, "geometry": {"type": "Point", "coordinates": [-51.56105261191962, -50.748863218699555]}}, {"type": "Feature", "properties": {"norad_id": 67148, "name": "KUIPER-00232", "group": "last-30-days", "lat": -42.960609579806714, "lon": 7.349910335724504, "alt_km": 460.5219146265672, "timestamp": "2025-12-27T09:28:55.187748+00:00", "meta": {"OBJECT_NAME": "KUIPER-00232", "OBJECT_ID": "2025-301R", "EPOCH": "2025-12-27T03:29:58.859232", "MEAN_MOTION": 15.36758642, "ECCENTRICITY": 0.0001618, "INCLINATION": 51.8748, "RA_OF_ASC_NODE": 55.5548, "ARG_OF_PERICENTER": 56.6085, "MEAN_ANOMALY": 303.5056, "EPHEMERIS_TYPE": 0, "CLASSIFICATION_TYPE": "U", "NORAD_CAT_ID": 67148, "ELEMENT_SET_NO": 999, "REV_AT_EPOCH": 258, "BSTAR": 0.0010019, "MEAN_MOTION_DOT": 0.0003633, "MEAN_MOTION_DDOT": 0}, "tle": {"line1": "1 67148U 25301R   25361.14582013  .00036330  00000+0  10019-2 0  9995", "line2": "2 67148  51.8748  55.5548 0001618  56.6085 303.5056 15.36758642  2583"}}, "geometry": {"type": "Point", "coordinates": [7.349910335724504, -42.960609579806714]}}, {"type": "Feature", "properties": {"norad_id": 67149, "name": "KUIPER-00241", "group": "last-30-days", "lat": -50.52408035594452, "lon": -18.081642523051713, "alt_km": 463.65460399640597, "timestamp": "2025-12-27T09:28:55.187758+00:00", "meta": {"OBJECT_NAME": "KUIPER-00241", "OBJECT_ID": "2025-301S", "EPOCH": "2025-12-27T03:34:48.363168", "MEAN_MOTION": 15.36293146, "ECCENTRICITY": 0.00029, "INCLINATION": 51.8745, "RA_OF_ASC_NODE": 55.5744, "ARG_OF_PERICENTER": 100.5552, "MEAN_ANOMALY": 259.5761, "EPHEMERIS_TYPE": 0, "CLASSIFICATION_TYPE": "U", "NORAD_CAT_ID": 67149, "ELEMENT_SET_NO": 999, "REV_AT_EPOCH": 291, "BSTAR": 0.00054681, "MEAN_MOTION_DOT": 0.00019312, "MEAN_MOTION_DDOT": 0}, "tle": {"line1": "1 67149U 25301S   25361.14917087  .00019312  00000+0  54681-3 0  9994", "line2": "2 67149  51.8745  55.5744 0002900 100.5552 259.5761 15.36293146  2915"}}, "geometry": {"type": "Point", "coordinates": [-18.081642523051713, -50.52408035594452]}}, {"type": "Feature", "properties": {"norad_id": 67150, "name": "KUIPER-00245", "group": "last-30-days", "lat": -49.80750236494285, "lon": -57.176437568860464, "alt_km": 465.7336770126012, "timestamp": "2025-12-27T09:28:55.187768+00:00", "meta": {"OBJECT_NAME": "KUIPER-00245", "OBJECT_ID": "2025-301T", "EPOCH": "2025-12-27T03:41:08.772864", "MEAN_MOTION": 15.35680478, "ECCENTRICITY": 0.0005049, "INCLINATION": 51.8731, "RA_OF_ASC_NODE": 55.6073, "ARG_OF_PERICENTER": 124.3737, "MEAN_ANOMALY": 235.7727, "EPHEMERIS_TYPE": 0, "CLASSIFICATION_TYPE": "U", "NORAD_CAT_ID": 67150, "ELEMENT_SET_NO": 999, "REV_AT_EPOCH": 258, "BSTAR": 0.00055749, "MEAN_MOTION_DOT": 0.00019312, "MEAN_MOTION_DDOT": 0}, "tle": {"line1": "1 67150U 25301T   25361.15357376  .00019312  00000+0  55749-3 0  9992", "line2": "2 67150  51.8731  55.6073 0005049 124.3737 235.7727 15.35680478  2582"}}, "geometry": {"type": "Point", "coordinates": [-57.176437568860464, -49.80750236494285]}}, {"type": "Feature", "properties": {"norad_id": 67151, "name": "KUIPER-00246", "group": "last-30-days", "lat": -51.84497287953538, "lon": -37.07986811105354, "alt_km": 465.0595631063743, "timestamp": "2025-12-27T09:28:55.187779+00:00", "meta": {"OBJECT_NAME": "KUIPER-00246", "OBJECT_ID": "2025-301U", "EPOCH": "2025-12-27T03:37:51.422304", "MEAN_MOTION": 15.35960531, "ECCENTRICITY": 0.0004005, "INCLINATION": 51.8741, "RA_OF_ASC_NODE": 55.5908, "ARG_OF_PERICENTER": 118.0107, "MEAN_ANOMALY": 242.1285, "EPHEMERIS_TYPE": 0, "CLASSIFICATION_TYPE": "U", "NORAD_CAT_ID": 67151, "ELEMENT_SET_NO": 999, "REV_AT_EPOCH": 260, "BSTAR": 0.00075386, "MEAN_MOTION_DOT": 0.00026512, "MEAN_MOTION_DDOT": 0}, "tle": {"line1": "1 67151U 25301U   25361.15128961  .00026512  00000+0  75386-3 0  9998", "line2": "2 67151  51.8741  55.5908 0004005 118.0107 242.1285 15.35960531  2607"}}, "geometry": {"type": "Point", "coordinates": [-37.07986811105354, -51.84497287953538]}}, {"type": "Feature", "properties": {"norad_id": 67152, "name": "KUIPER-00247", "group": "last-30-days", "lat": -7.539829061285194, "lon": -119.45120960039692, "alt_km": 458.8164765545307, "timestamp": "2025-12-27T09:28:55.187790+00:00", "meta": {"OBJECT_NAME": "KUIPER-00247", "OBJECT_ID": "2025-301V", "EPOCH": "2025-12-27T03:58:10.051104", "MEAN_MOTION": 15.34044636, "ECCENTRICITY": 0.0011352, "INCLINATION": 51.8635, "RA_OF_ASC_NODE": 55.6854, "ARG_OF_PERICENTER": 156.6496, "MEAN_ANOMALY": 203.5007, "EPHEMERIS_TYPE": 0, "CLASSIFICATION_TYPE": "U", "NORAD_CAT_ID": 67152, "ELEMENT_SET_NO": 999, "REV_AT_EPOCH": 258, "BSTAR": 0.00099216, "MEAN_MOTION_DOT": 0.00033007, "MEAN_MOTION_DDOT": 0}, "tle": {"line1": "1 67152U 25301V   25361.16539411  .00033007  00000+0  99216-3 0  9991", "line2": "2 67152  51.8635  55.6854 0011352 156.6496 203.5007 15.34044636  2581"}}, "geometry": {"type": "Point", "coordinates": [-119.45120960039692, -7.539829061285194]}}]}